      2.10          N: GNSS NAV DATA                        RINEX VERSION / TYPE
fic2rin                                 06/11/2021 00:17:08 PGM / RUN BY / DATE
                                                            END OF HEADER
13 21  6 10 20  0  0.0 1.432187855244e-04 4.888534022029e-12 0.000000000000e+00
    1.800000000000e+01-1.875000000000e-01 4.581619414267e-09-2.041537453498e+00
    6.519258022308e-08 4.995651659556e-03 5.220994353294e-06 5.153669429779e+03
    4.176000000000e+05 3.725290298462e-08-1.472822663719e+00-1.024454832077e-07
    9.676071146859e-01 2.841562500000e+02 9.616168703796e-01-7.808896700463e-09
   -6.178828801592e-11 1.000000000000e+00 2.161000000000e+03 0.000000000000e+00
    2.400000000000e+00 0.000000000000e+00-1.117587089539e-08 1.800000000000e+01
    4.104000000000e+05 4.000000000000e+00
 7 21  6 10 20  0  0.0 1.748343929648e-04 9.890754881781e-12 0.000000000000e+00
    8.400000000000e+01-2.250000000000e+00 4.536617539759e-09 1.997363182102e+00
   -2.626329660416e-07 1.504465285689e-02 9.125098586082e-06 5.153756788254e+03
    4.176000000000e+05-2.644956111908e-07-5.489884922600e-01-1.899898052216e-07
    9.516761006495e-01 2.010312500000e+02-2.327964598053e+00-7.856041521377e-09
   -5.718095324479e-10 1.000000000000e+00 2.161000000000e+03 0.000000000000e+00
    3.400000000000e+00 0.000000000000e+00-1.117587089539e-08 8.400000000000e+01
    4.104000000000e+05 4.000000000000e+00
29 21  6 10 20  0  0.0-3.619636408985e-04-6.252776074689e-12 0.000000000000e+00
    6.200000000000e+01 2.696875000000e+01 4.348752571572e-09-1.359308064934e+00
    1.356005668640e-06 1.916534383781e-03 6.780028343201e-07 5.153625062943e+03
    4.176000000000e+05-5.960464477539e-08 1.610077381523e+00-9.313225746155e-09
    9.836309772070e-01 3.848750000000e+02 2.170886120201e+00-8.239986085638e-09
    1.685784505406e-10 1.000000000000e+00 2.161000000000e+03 0.000000000000e+00
    2.400000000000e+00 0.000000000000e+00-9.778887033463e-09 6.200000000000e+01
    4.104000000000e+05 4.000000000000e+00
30 21  6 10 20  0  0.0-4.373574629426e-04-4.661160346586e-12 0.000000000000e+00
    8.000000000000e+01 4.375000000000e+00 4.887703592473e-09 1.840686506404e+00
    2.700835466385e-07 5.289738066494e-03 9.085983037949e-06 5.153693490982e+03
    4.176000000000e+05-5.401670932770e-08-5.320342167664e-01 2.421438694000e-08
    9.368997824823e-01 1.940625000000e+02-2.765908562874e+00-8.027477233791e-09
   -6.271689812483e-10 1.000000000000e+00 2.161000000000e+03 0.000000000000e+00
    2.400000000000e+00 0.000000000000e+00 3.725290298462e-09 8.000000000000e+01
    4.104000000000e+05 4.000000000000e+00
22 21  6 10 20  0  0.0-5.918070673943e-04 9.663381206337e-12 0.000000000000e+00
    4.100000000000e+01-4.062500000000e+01 4.802342894001e-09-2.491770213991e+00
   -2.140179276466e-06 7.028704625554e-03 1.048482954502e-05 5.153818996429e+03
    4.176000000000e+05-2.048909664154e-08-2.751395972263e+00 1.117587089539e-07
    9.354156740346e-01 1.617500000000e+02-9.411275484371e-01-7.878899616366e-09
    3.257278535868e-10 1.000000000000e+00 2.161000000000e+03 0.000000000000e+00
    2.400000000000e+00 0.000000000000e+00-1.769512891769e-08 4.100000000000e+01
    4.104000000000e+05 4.000000000000e+00
27 21  6 10 20  0  0.0-1.449962146580e-04-6.252776074689e-12 0.000000000000e+00
    9.300000000000e+01 3.196875000000e+01 4.399468969827e-09-1.527932695410e+00
    1.627951860428e-06 9.437022730708e-03 2.142041921616e-07 5.153685556412e+03
    4.176000000000e+05 1.415610313416e-07 1.536724644350e+00-6.891787052155e-08
    9.755615708210e-01 3.785625000000e+02 6.316413039499e-01-8.201055892610e-09
    2.732256666600e-10 1.000000000000e+00 2.161000000000e+03 0.000000000000e+00
    2.400000000000e+00 0.000000000000e+00 1.862645149231e-09 9.300000000000e+01
    4.104000000000e+05 4.000000000000e+00
32 21  6 10 20  0  0.0 1.891842111945e-05-1.250555214938e-12 0.000000000000e+00
    8.700000000000e+01 8.500000000000e+00 4.966992609465e-09-7.778793862102e-01
    3.464519977570e-07 5.007704487070e-03 5.174428224564e-06 5.153670108795e+03
    4.176000000000e+05 7.264316082001e-08-1.611659056366e+00 8.754432201385e-08
    9.568197601150e-01 2.793750000000e+02-2.359597638484e+00-8.177840639888e-09
    5.857386840816e-11 1.000000000000e+00 2.161000000000e+03 0.000000000000e+00
    2.400000000000e+00 0.000000000000e+00 4.656612873077e-10 8.700000000000e+01
    4.104000000000e+05 4.000000000000e+00
19 21  6 10 20  0  0.0 1.166714355350e-05 5.002220859751e-12 0.000000000000e+00
    8.800000000000e+01 3.562500000000e+00 4.464828835185e-09 9.803311299494e-01
    4.842877388000e-08 9.315198403783e-03 4.749745130539e-07 5.153634643555e+03
    4.176000000000e+05-1.080334186554e-07 1.642744286642e+00-2.086162567139e-07
    9.803015877817e-01 3.818437500000e+02 1.855788869513e+00-8.366777081277e-09
    1.153619481453e-10 1.000000000000e+00 2.161000000000e+03 0.000000000000e+00
    2.400000000000e+00 0.000000000000e+00-1.536682248116e-08 8.800000000000e+01
    4.104000000000e+05 4.000000000000e+00
21 21  6 10 20  0  0.0 1.241625286639e-04 2.501110429876e-12 0.000000000000e+00
    8.800000000000e+01-1.128750000000e+02 4.700552939755e-09-1.335818049315e+00
   -5.710870027542e-06 2.403146168217e-02 5.980953574181e-06 5.153682207108e+03
    4.176000000000e+05-5.811452865601e-07 2.510714068313e+00 6.332993507385e-08
    9.574580239584e-01 2.695000000000e+02-1.128539000682e+00-8.434994208509e-09
   -9.464679956196e-11 1.000000000000e+00 2.161000000000e+03 0.000000000000e+00
    2.400000000000e+00 0.000000000000e+00-1.024454832077e-08 8.800000000000e+01
    4.104000000000e+05 4.000000000000e+00
26 21  6 10 20  0  0.0 9.672250598669e-05 4.888534022029e-12 0.000000000000e+00
    5.900000000000e+01 1.061562500000e+02 4.608763402066e-09 2.939723274131e-01
    5.658715963364e-06 5.882441066206e-03 8.910894393921e-06 5.153578630447e+03
    4.176000000000e+05 1.080334186554e-07 4.451918417643e-01 8.381903171539e-08
    9.420917782240e-01 1.975625000000e+02 3.082518532298e-01-8.083908155794e-09
    8.428922527028e-11 1.000000000000e+00 2.161000000000e+03 0.000000000000e+00
    2.400000000000e+00 0.000000000000e+00 6.984919309616e-09 5.900000000000e+01
    4.104000000000e+05 4.000000000000e+00
24 21  6 10 20  0  0.0 1.258626580238e-04 1.853095454862e-11 0.000000000000e+00
    1.020000000000e+02-6.812500000000e+00 4.901989901841e-09 2.949815589008e+00
   -3.986060619354e-07 1.112819032278e-02 8.262693881989e-06 5.153725021362e+03
    4.176000000000e+05 4.097819328308e-08-6.274873071022e-01-1.266598701477e-07
    9.350022212012e-01 2.048437500000e+02 7.412753208868e-01-7.901757711354e-09
   -5.307363930154e-10 1.000000000000e+00 2.161000000000e+03 0.000000000000e+00
    3.400000000000e+00 0.000000000000e+00 2.793967723846e-09 1.020000000000e+02
    4.104000000000e+05 4.000000000000e+00
28 21  6 10 20  0  0.0 5.568009801209e-04-6.366462912410e-12 0.000000000000e+00
    5.800000000000e+01 1.287187500000e+02 4.041954077897e-09-9.399034297905e-01
    6.806105375290e-06 1.748862210661e-02 8.100643754005e-06 5.153739181519e+03
    4.176000000000e+05-2.793967723846e-07 5.834413482512e-01 1.080334186554e-07
    9.729163691634e-01 2.384375000000e+02-1.347342577084e+00-8.037120492614e-09
    3.103700710164e-10 1.000000000000e+00 2.161000000000e+03 0.000000000000e+00
    3.400000000000e+00 0.000000000000e+00-1.117587089539e-08 5.800000000000e+01
    4.104000000000e+05 4.000000000000e+00
18 21  6 10 20  0  0.0 3.473227843642e-04-1.705302565824e-12 0.000000000000e+00
    1.180000000000e+02-1.339375000000e+02 4.358038672661e-09 2.907206773083e+00
   -6.830319762230e-06 1.492440234870e-03 5.455687642097e-06 5.153665248871e+03
    4.176000000000e+05-2.793967723846e-08 2.606353669001e+00 2.421438694000e-08
    9.684363098195e-01 2.802812500000e+02 2.892352121504e+00-7.990689987169e-09
   -1.521491947675e-10 1.000000000000e+00 2.161000000000e+03 0.000000000000e+00
    2.400000000000e+00 0.000000000000e+00-8.381903171539e-09 1.180000000000e+02
    4.104000000000e+05 4.000000000000e+00
17 21  6 10 20  0  0.0 4.564044065773e-04 6.025402399246e-12 0.000000000000e+00
    8.300000000000e+01 1.656250000000e+01 4.388039922333e-09-1.473089975425e+00
    1.322478055954e-06 1.335314626340e-02 4.433095455170e-07 5.153608623505e+03
    4.176000000000e+05-3.539025783539e-08 1.597579479266e+00 2.942979335785e-07
    9.817625119036e-01 3.839062500000e+02-1.566153628996e+00-8.231414300017e-09
    1.421487782100e-10 1.000000000000e+00 2.161000000000e+03 0.000000000000e+00
    2.400000000000e+00 0.000000000000e+00-1.117587089539e-08 8.300000000000e+01
    4.104000000000e+05 4.000000000000e+00
23 21  6 10 20  0  0.0 9.822752326727e-05-4.092726157978e-12 0.000000000000e+00
    1.310000000000e+02-4.528125000000e+01 4.318037006431e-09 2.205768780061e+00
   -2.233311533928e-06 1.259529846720e-03 1.014396548271e-05 5.153658426285e+03
    4.176000000000e+05 1.117587089539e-07-2.677860361553e+00 5.587935447693e-08
    9.646566020252e-01 1.862500000000e+02 2.593749383341e+00-7.736036522687e-09
    3.500145795122e-10 1.000000000000e+00 2.161000000000e+03 0.000000000000e+00
    2.400000000000e+00 0.000000000000e+00-8.381903171539e-09 3.870000000000e+02
    4.104000000000e+05 4.000000000000e+00
14 21  6 10 20  0  0.0 7.154326885939e-05-7.048583938740e-12 0.000000000000e+00
    2.400000000000e+01 1.263750000000e+02 4.286607125821e-09 1.485232390051e+00
    6.506219506264e-06 7.915149908513e-04 7.843598723412e-06 5.153759681702e+03
    4.176000000000e+05-1.490116119385e-08 5.337894756171e-01 5.215406417847e-08
    9.572570585131e-01 2.276250000000e+02 2.800005150036e+00-7.874256565821e-09
    1.546492989069e-10 1.000000000000e+00 2.161000000000e+03 0.000000000000e+00
    2.400000000000e+00 0.000000000000e+00-7.916241884232e-09 7.920000000000e+02
    4.104000000000e+05 4.000000000000e+00
